NORAD_CAT_ID,OBJECT_NAME,OBJECT_TYPE,EPOCH,MEAN_MOTION,ECCENTRICITY,INCLINATION,RA_OF_ASC_NODE,ARG_OF_PERICENTER,MEAN_ANOMALY,BSTAR,MEAN_MOTION_DOT,MEAN_MOTION_DDOT,TLE_LINE0,TLE_LINE1,TLE_LINE2,SEMIMAJOR_AXIS,PERIOD,APOGEE,PERIGEE,DECAYED
54770.0,STARLINK-5448,PAYLOAD,2023-01-23 16:43:39,15.73200608,6.96e-05,53.2166,123.6196,133.8531,226.2547,1.6291999999999998e-06,-3.9e-06,0.0,0 STARLINK-5448,1 54770U 22175N   23023.69698078 -.00000390  00000-0  16292-5 0  9991,2 54770  53.2166 123.6196 0000696 133.8531 226.2547 15.73200608  5545,6727.893,91.533,350.227,349.29,0.0
54770.0,STARLINK-5448,PAYLOAD,2023-01-24 01:52:31,15.73214573,6.56e-05,53.2175,121.7347,60.0946,300.0139,4.839e-05,6.181e-05,0.0,0 STARLINK-5448,1 54770U 22175N   23024.07814752  .00006181  00000-0  48390-4 0  9999,2 54770  53.2175 121.7347 0000656  60.0946 300.0139 15.73214573  5600,6727.854,91.532,350.16,349.277,0.0
54770.0,STARLINK-5448,PAYLOAD,2023-01-24 11:01:24,15.73206034,0.0001486,53.2167,119.845,89.1578,270.9612,-7.6159e-06,-1.689e-05,0.0,0 STARLINK-5448,1 54770U 22175N   23024.45931270 -.00001689  00000-0 -76159-5 0  9991,2 54770  53.2167 119.8450 0001486  89.1578 270.9612 15.73206034  5669,6727.878000000001,91.533,350.74300000000005,348.74300000000005,0.0
54770.0,STARLINK-5448,PAYLOAD,2023-01-25 02:16:12,15.73219999,0.0001754999999999,53.2147,116.7019,112.0757,248.045,4.5468e-05,5.7700000000000007e-05,0.0,0 STARLINK-5448,1 54770U 22175N   23025.09458791  .00005770  00000-0  45468-4 0  9995,2 54770  53.2147 116.7019 0001755 112.0757 248.0450 15.73219999  5769,6727.838000000001,91.532,350.884,348.522,0.0
54770.0,STARLINK-5448,PAYLOAD,2023-01-25 11:25:05,15.73212512,0.0001478,53.216,114.8157,69.9676,290.1503,3.3785e-05,4.126e-05,0.0,0 STARLINK-5448,1 54770U 22175N   23025.47575891  .00004126  00000-0  33785-4 0  9991,2 54770  53.2160 114.8157 0001478  69.9676 290.1503 15.73212512  5826,6727.86,91.532,350.719,348.73,0.0
54770.0,STARLINK-5448,PAYLOAD,2023-01-26 11:48:46,15.73206042,0.0001269,53.2158,109.7868,81.8694,278.247,2.2802e-05,2.582e-05,0.0,0 STARLINK-5448,1 54770U 22175N   23026.49220890  .00002582  00000-0  22802-4 0  9992,2 54770  53.2158 109.7868 0001269  81.8694 278.2470 15.73206042  8145,6727.878000000001,91.533,350.597,348.889,0.0
54770.0,STARLINK-5448,PAYLOAD,2023-01-27 09:09:30,15.73200707,0.00016,53.2157,105.3815,112.2943,247.8247,1.3295e-05,1.246e-05,0.0,0 STARLINK-5448,1 54770U 22175N   23027.38160090  .00001246  00000-0  13295-4 0  9998,2 54770  53.2157 105.3815 0001600 112.2943 247.8247 15.73200707  6125,6727.893,91.533,350.835,348.682,0.0
54770.0,STARLINK-5448,PAYLOAD,2023-01-28 04:58:44,15.73217064,0.0001254,53.2161,101.2961,110.6873,249.4282,4.2209e-05,5.312e-05,0.0,0 STARLINK-5448,1 54770U 22175N   23028.20745594  .00005312  00000-0  42209-4 0  9993,2 54770  53.2161 101.2961 0001254 110.6873 249.4282 15.73217064  6251,6727.847,91.532,350.555,348.86800000000005,0.0
54770.0,STARLINK-5448,PAYLOAD,2023-01-28 11:04:39,15.73209757,0.0001428,53.2161,100.041,124.4081,235.7074,1.409e-05,1.358e-05,0.0,0 STARLINK-5448,1 54770U 22175N   23028.46157031  .00001358  00000-0  14090-4 0  9997,2 54770  53.2161 100.0410 0001428 124.4081 235.7074 15.73209757  6295,6727.867,91.533,350.693,348.772,0.0
54770.0,STARLINK-5448,PAYLOAD,2023-01-29 09:56:52,15.73204194,0.0001075,53.2158,95.324,104.8416,255.2723,6.5589e-06,3.01e-06,0.0,0 STARLINK-5448,1 54770U 22175N   23029.41449114  .00000301  00000-0  65589-5 0  9996,2 54770  53.2158  95.3240 0001075 104.8416 255.2723 15.73204194  6445,6727.883,91.533,350.471,349.025,0.0
54770.0,STARLINK-5448,PAYLOAD,2023-01-30 10:20:32,15.73215958,0.0001587,53.2168,90.2957,45.0948,315.02,7.7028e-05,0.0001021,0.0,0 STARLINK-5448,1 54770U 22175N   23030.43093589  .00010210  00000-0  77028-4 0  9991,2 54770  53.2168  90.2957 0001587  45.0948 315.0200 15.73215958  8761,6727.85,91.532,350.782,348.647,0.0
54770.0,STARLINK-5448,PAYLOAD,2023-01-30 21:00:54,15.73202418,7.9e-05,53.2149,88.0922,93.573,266.538,9.8162e-06,7.59e-06,0.0,0 STARLINK-5448,1 54770U 22175N   23030.87563137  .00000759  00000-0  98162-5 0  9990,2 54770  53.2149  88.0922 0000790  93.5730 266.5380 15.73202418  6673,6727.888,91.533,350.285,349.222,0.0
54770.0,STARLINK-5448,PAYLOAD,2023-01-31 04:38:18,15.73232856,0.0001447,53.2156,86.5212,74.2606,285.8574,0.00030412,0.00042337,0.0,0 STARLINK-5448,1 54770U 22175N   23031.19327194  .00042337  00000-0  30412-3 0  9997,2 54770  53.2156  86.5212 0001447  74.2606 285.8574 15.73232856  6728,6727.802,91.531,350.64,348.693,0.0
54770.0,STARLINK-5448,PAYLOAD,2023-01-31 13:47:11,15.7323657,0.0001295,53.2154,84.636,125.1789,234.9353,0.00023356,0.00032336,0.0,0 STARLINK-5448,1 54770U 22175N   23031.57443380  .00032336  00000-0  23356-3 0  9992,2 54770  53.2154  84.6360 0001295 125.1789 234.9353 15.73236570  6781,6727.791,91.531,350.527,348.785,0.0
54770.0,STARLINK-5448,PAYLOAD,2023-02-01 06:33:28,15.73217237,7.97e-05,53.2158,81.1757,54.9317,305.1778,0.0001696,0.00023266,0.0,0 STARLINK-5448,1 54770U 22175N   23032.27324323  .00023266  00000-0  16960-3 0  9990,2 54770  53.2158  81.1757 0000797  54.9317 305.1778 15.73217237  6892,6727.846,91.532,350.247,349.175,0.0
54770.0,STARLINK-5448,PAYLOAD,2023-02-01 12:39:23,15.73195539,0.0001237,53.2162,79.9194,96.8638,263.2523,-2.0947e-05,-3.558e-05,0.0,0 STARLINK-5448,1 54770U 22175N   23032.52735806 -.00003558  00000-0 -20947-4 0  9995,2 54770  53.2162  79.9194 0001237  96.8638 263.2523 15.73195539  9095,6727.908,91.533,350.605,348.941,0.0
54770.0,STARLINK-5448,PAYLOAD,2023-02-02 02:22:47,15.72993374,0.0001721,53.2155,77.0915,103.7838,256.3374,-0.00077288,-0.00106783,0.0,0 STARLINK-5448,1 54770U 22175N   23033.09915872 -.00106783  00000-0 -77288-3 0  9994,2 54770  53.2155  77.0915 0001721 103.7838 256.3374 15.72993374  7025,6728.484,91.545,351.507,349.191,0.0
54770.0,STARLINK-5448,PAYLOAD,2023-02-02 08:28:41,15.73159863,0.0001294,53.2161,75.8347,290.8203,69.2678,0.00044539,0.00062244,0.0,0 STARLINK-5448,1 54770U 22175N   23033.35326075  .00062244  00000-0  44539-3 0  9998,2 54770  53.2161  75.8347 0001294 290.8203  69.2678 15.73159863  9226,6728.01,91.536,350.745,349.004,0.0
54770.0,STARLINK-5448,PAYLOAD,2023-02-03 02:00:01,15.70815251,0.0001362,53.2153,72.2309,92.357,79.9413,-0.0077874,-0.00889013,0.0,0 STARLINK-5448,1 54770U 22175N   23034.08334491 -.00889013  00000-0 -77874-2 0  9990,2 54770  53.2153  72.2309 0001362  92.3570  79.9413 15.70815251  7178,6734.703,91.672,357.485,355.651,0.0
54770.0,STARLINK-5448,PAYLOAD,2023-02-03 14:00:01,15.6983432,0.0001154,53.2152,69.7694,69.5693,50.9332,-0.0080589,-0.00883336,0.0,0 STARLINK-5448,1 54770U 22175N   23034.58334491 -.00883336  00000-0 -80589-2 0  9994,2 54770  53.2152  69.7694 0001154  69.5693  50.9332 15.69834320  1300,6737.508,91.729,360.151,358.596,0.0
54770.0,STARLINK-5448,PAYLOAD,2023-02-04 00:00:00,15.69011914,0.0001009,53.2151,67.7167,90.0725,225.9281,-0.0082148,-0.00871286,0.0,0 STARLINK-5448,1 54770U 22175N   23035.00001157 -.00871286  00000-0 -82148-2 0  9996,2 54770  53.2151  67.7167 0001009  90.0725 225.9281 15.69011914  7327,6739.862,91.778,362.407,361.047,0.0
54770.0,STARLINK-5448,PAYLOAD,2023-02-04 14:00:01,15.67897577,0.0001098,53.2142,64.8526,67.234,304.3887,-0.0089697,-0.00918743,0.0,0 STARLINK-5448,1 54770U 22175N   23035.58334491 -.00918743  00000-0 -89697-2 0  9995,2 54770  53.2142  64.8526 0001098  67.2340 304.3887 15.67897577  1302,6743.055,91.843,365.661,364.18,0.0
54770.0,STARLINK-5448,PAYLOAD,2023-02-04 16:00:00,15.67764101,0.0001209,53.2142,64.4429,71.0797,51.1471,-0.0096601,-0.0097796,0.0,0 STARLINK-5448,1 54770U 22175N   23035.66667824 -.00977960  00000-0 -96601-2 0  9992,2 54770  53.2142  64.4429 0001209  71.0797  51.1471 15.67764101  7424,6743.438,91.851,366.118,364.488,0.0
54770.0,STARLINK-5448,PAYLOAD,2023-02-04 22:00:00,15.6719933,0.0001105,53.2143,63.2148,82.8413,10.9483,-0.0085409,-0.00843526,0.0,0 STARLINK-5448,1 54770U 22175N   23035.91667824 -.00843526  00000-0 -85409-2 0  9994,2 54770  53.2143  63.2148 0001105  82.8413  10.9483 15.67199330  1303,6745.058,91.884,367.668,366.178,0.0
54770.0,STARLINK-5448,PAYLOAD,2023-02-05 06:00:00,15.66590156,0.0001225,53.2145,61.5816,81.7681,93.37,-0.0096062,-0.0093146,0.0,0 STARLINK-5448,1 54770U 22175N   23036.25001157 -.00931460  00000-0 -96062-2 0  9995,2 54770  53.2145  61.5816 0001225  81.7681  93.3700 15.66590156  7512,6746.806,91.919,369.498,367.845,0.0
54770.0,STARLINK-5448,PAYLOAD,2023-02-05 14:00:01,15.65957144,0.0001118,53.2144,59.9496,76.2652,179.5055,-0.0099747,-0.00941611,0.0,0 STARLINK-5448,1 54770U 22175N   23036.58335648 -.00941611  00000-0 -99747-2 0  9998,2 54770  53.2144  59.9496 0001118  76.2652 179.5055 15.65957144  1308,6748.624,91.957,371.244,369.735,0.0
54770.0,STARLINK-5448,PAYLOAD,2023-02-05 22:00:00,15.6524396,0.0001108,53.2146,58.3166,84.6953,250.8327,-0.0091645,-0.00836756,0.0,0 STARLINK-5448,1 54770U 22175N   23036.91667824 -.00836756  00000-0 -91645-2 0  9991,2 54770  53.2146  58.3166 0001108  84.6953 250.8327 15.65243960  1302,6750.674,91.998,373.287,371.791,0.0
54770.0,STARLINK-5448,PAYLOAD,2023-02-06 14:00:01,15.6400154,0.0001413,53.2141,55.0609,70.7851,61.9676,-0.010779,-0.00940866,0.0,0 STARLINK-5448,1 54770U 22175N   23037.58334491 -.00940866  00000-0 -10779-1 0  9992,2 54770  53.2141  55.0609 0001413  70.7851  61.9676 15.64001540  7720,6754.249,92.072,377.068,375.159,0.0
54770.0,STARLINK-5448,PAYLOAD,2023-02-06 22:00:00,15.63304631,0.0001314,53.214,53.4326,88.3422,121.879,-0.01015,-0.00868419,0.0,0 STARLINK-5448,1 54770U 22175N   23037.91667824 -.00868419  00000-0 -10150-1 0  9994,2 54770  53.2140  53.4326 0001314  88.3422 121.8790 15.63304631  1303,6756.256,92.113,379.009,377.233,0.0
54770.0,STARLINK-5448,PAYLOAD,2023-02-07 14:00:01,15.62046403,0.0001206,53.2141,50.1865,77.4079,285.3514,-0.011614,-0.00938581,0.0,0 STARLINK-5448,1 54770U 22175N   23038.58334491 -.00938581  00000-0 -11614-1 0  9993,2 54770  53.2141  50.1865 0001206  77.4079 285.3514 15.62046403  1302,6759.884,92.187,382.564,380.933,0.0
